start=new Date('2022-01-02T00:00:00.000Z').valueOf();
sats=[{"FILE":"3255244","SEMIMAJOR_AXIS":"6925.371","DECAY_DATE":null,"COUNTRY_CODE":"US","APOAPSIS":"548.796","OBJECT_TYPE":"PAYLOAD","MEAN_MOTION_DOT":"-0.00000495","REV_AT_EPOCH":"3488","PERIAPSIS":"545.675","RA_OF_ASC_NODE":"151.3943","EPHEMERIS_TYPE":"0","TLE_LINE1":"1 48588U 21041AM  22001.62095101 -.00000495  00000-0 -14344-4 0  9990","MEAN_ELEMENT_THEORY":"SGP4","SITE":"AFETR","OBJECT_NAME":"STARLINK-2244","ECCENTRICITY":"0.00022530","LAUNCH_DATE":"2021-05-15","ARG_OF_PERICENTER":"97.6117","CENTER_NAME":"EARTH","GP_ID":"192870166","MEAN_ANOMALY":"262.5128","TLE_LINE2":"2 48588  53.0536 151.3943 0002253  97.6117 262.5128 15.06392820 34881","NORAD_CAT_ID":"48588","OBJECT_ID":"2021-041AM","EPOCH":"2022-01-01T14:54:10.167264","MEAN_MOTION_DDOT":"0.0000000000000","CLASSIFICATION_TYPE":"U","PERIOD":"95.593","BSTAR":"-0.00001434400000","TIME_SYSTEM":"UTC","MEAN_MOTION":"15.06392820","INCLINATION":"53.0536","REF_FRAME":"TEME","RCS_SIZE":"LARGE","ELEMENT_SET_NO":"999"},{"LAUNCH_DATE":"2021-05-15","ECCENTRICITY":"0.00024640","OBJECT_NAME":"STARLINK-2245","MEAN_ELEMENT_THEORY":"SGP4","SITE":"AFETR","EPHEMERIS_TYPE":"0","TLE_LINE1":"1 48589U 21041AN  22001.68361015  .00000785  00000-0  71649-4 0  9998","MEAN_MOTION_DOT":"0.00000785","PERIAPSIS":"545.522","REV_AT_EPOCH":"3489","RA_OF_ASC_NODE":"151.1063","DECAY_DATE":null,"APOAPSIS":"548.935","COUNTRY_CODE":"US","OBJECT_TYPE":"PAYLOAD","FILE":"3255246","SEMIMAJOR_AXIS":"6925.363","RCS_SIZE":"LARGE","ELEMENT_SET_NO":"999","INCLINATION":"53.0542","REF_FRAME":"TEME","MEAN_MOTION":"15.06395145","PERIOD":"95.592","BSTAR":"0.00007164900000","TIME_SYSTEM":"UTC","CLASSIFICATION_TYPE":"U","OBJECT_ID":"2021-041AN","EPOCH":"2022-01-01T16:24:23.916960","MEAN_MOTION_DDOT":"0.0000000000000","MEAN_ANOMALY":"261.3513","TLE_LINE2":"2 48589  53.0542 151.1063 0002464  98.7755 261.3513 15.06395145 34893","NORAD_CAT_ID":"48589","ARG_OF_PERICENTER":"98.7755","CENTER_NAME":"EARTH","GP_ID":"192895335"},{"REF_FRAME":"TEME","INCLINATION":"53.0551","ELEMENT_SET_NO":"999","RCS_SIZE":"LARGE","TIME_SYSTEM":"UTC","PERIOD":"95.592","BSTAR":"-0.00002534600000","MEAN_MOTION":"15.06397342","MEAN_MOTION_DDOT":"0.0000000000000","EPOCH":"2022-01-01T15:24:41.340096","OBJECT_ID":"2021-041AP","CLASSIFICATION_TYPE":"U","GP_ID":"192896086","CENTER_NAME":"EARTH","ARG_OF_PERICENTER":"97.5399","NORAD_CAT_ID":"48590","TLE_LINE2":"2 48590  53.0551 161.2886 0002156  97.5399 262.5835 15.06397342 34744","MEAN_ANOMALY":"262.5835","ECCENTRICITY":"0.00021560","LAUNCH_DATE":"2021-05-15","SITE":"AFETR","MEAN_ELEMENT_THEORY":"SGP4","OBJECT_NAME":"STARLINK-2246","RA_OF_ASC_NODE":"161.2886","PERIAPSIS":"545.729","REV_AT_EPOCH":"3474","MEAN_MOTION_DOT":"-0.00000659","TLE_LINE1":"1 48590U 21041AP  22001.64214514 -.00000659  00000-0 -25346-4 0  9992","EPHEMERIS_TYPE":"0","SEMIMAJOR_AXIS":"6925.357","FILE":"3255246","OBJECT_TYPE":"PAYLOAD","APOAPSIS":"548.715","COUNTRY_CODE":"US","DECAY_DATE":null},{"OBJECT_NAME":"STARLINK-2248","MEAN_ELEMENT_THEORY":"SGP4","SITE":"AFETR","LAUNCH_DATE":"2021-05-15","ECCENTRICITY":"0.00022530","DECAY_DATE":null,"APOAPSIS":"548.781","COUNTRY_CODE":"US","OBJECT_TYPE":"PAYLOAD","FILE":"3255244","SEMIMAJOR_AXIS":"6925.356","EPHEMERIS_TYPE":"0","TLE_LINE1":"1 48591U 21041AQ  22001.60157521  .00000739  00000-0  68530-4 0  9992","MEAN_MOTION_DOT":"0.00000739","PERIAPSIS":"545.660","REV_AT_EPOCH":"3578","RA_OF_ASC_NODE":"151.4006","MEAN_MOTION":"15.06397646","BSTAR":"0.00006853000000","PERIOD":"95.592","TIME_SYSTEM":"UTC","RCS_SIZE":"LARGE","ELEMENT_SET_NO":"999","INCLINATION":"53.0594","REF_FRAME":"TEME","MEAN_ANOMALY":"267.6695","TLE_LINE2":"2 48591  53.0594 151.4006 0002253  92.4552 267.6695 15.06397646 35782","NORAD_CAT_ID":"48591","ARG_OF_PERICENTER":"92.4552","CENTER_NAME":"EARTH","GP_ID":"192870417","CLASSIFICATION_TYPE":"U","OBJECT_ID":"2021-041AQ","EPOCH":"2022-01-01T14:26:16.098144","MEAN_MOTION_DDOT":"0.0000000000000"},{"RA_OF_ASC_NODE":"160.8545","PERIAPSIS":"545.607","REV_AT_EPOCH":"3476","MEAN_MOTION_DOT":"-0.00000834","TLE_LINE1":"1 48592U 21041AR  22001.74167561 -.00000834  00000-0 -37081-4 0  9998","EPHEMERIS_TYPE":"0","SEMIMAJOR_AXIS":"6925.357","FILE":"3255246","OBJECT_TYPE":"PAYLOAD","COUNTRY_CODE":"US","APOAPSIS":"548.838","DECAY_DATE":null,"ECCENTRICITY":"0.00023330","LAUNCH_DATE":"2021-05-15","SITE":"AFETR","MEAN_ELEMENT_THEORY":"SGP4","OBJECT_NAME":"STARLINK-2249","MEAN_MOTION_DDOT":"0.0000000000000","EPOCH":"2022-01-01T17:48:00.772704","OBJECT_ID":"2021-041AR","CLASSIFICATION_TYPE":"U","GP_ID":"192895585","CENTER_NAME":"EARTH","ARG_OF_PERICENTER":"96.5154","NORAD_CAT_ID":"48592","TLE_LINE2":"2 48592  53.0561 160.8545 0002333  96.5154 263.6101 15.06397105 34766","MEAN_ANOMALY":"263.6101","REF_FRAME":"TEME","INCLINATION":"53.0561","ELEMENT_SET_NO":"999","RCS_SIZE":"LARGE","TIME_SYSTEM":"UTC","BSTAR":"-0.00003708100000","PERIOD":"95.592","MEAN_MOTION":"15.06397105"},{"LAUNCH_DATE":"2021-05-15","ECCENTRICITY":"0.00023970","OBJECT_NAME":"STARLINK-2250","MEAN_ELEMENT_THEORY":"SGP4","SITE":"AFETR","EPHEMERIS_TYPE":"0","TLE_LINE1":"1 48593U 21041AS  22001.74904153 -.00000833  00000-0 -36971-4 0  9991","MEAN_MOTION_DOT":"-0.00000833","PERIAPSIS":"545.544","REV_AT_EPOCH":"3476","RA_OF_ASC_NODE":"160.8114","DECAY_DATE":null,"APOAPSIS":"548.864","COUNTRY_CODE":"US","OBJECT_TYPE":"PAYLOAD","FILE":"3255246","SEMIMAJOR_AXIS":"6925.339","RCS_SIZE":"LARGE","ELEMENT_SET_NO":"999","INCLINATION":"53.0553","REF_FRAME":"TEME","MEAN_MOTION":"15.06403262","BSTAR":"-0.00003697100000","PERIOD":"95.592","TIME_SYSTEM":"UTC","CLASSIFICATION_TYPE":"U","OBJECT_ID":"2021-041AS","EPOCH":"2022-01-01T17:58:37.188192","MEAN_MOTION_DDOT":"0.0000000000000","MEAN_ANOMALY":"261.2542","TLE_LINE2":"2 48593  53.0553 160.8114 0002397  98.8719 261.2542 15.06403262 34767","NORAD_CAT_ID":"48593","ARG_OF_PERICENTER":"98.8719","CENTER_NAME":"EARTH","GP_ID":"192895835"},{"MEAN_ELEMENT_THEORY":"SGP4","SITE":"AFETR","OBJECT_NAME":"STARLINK-2251","ECCENTRICITY":"0.00016840","LAUNCH_DATE":"2021-05-15","FILE":"3255246","SEMIMAJOR_AXIS":"6927.889","DECAY_DATE":null,"OBJECT_TYPE":"PAYLOAD","COUNTRY_CODE":"US","APOAPSIS":"550.921","PERIAPSIS":"548.588","REV_AT_EPOCH":"358","MEAN_MOTION_DOT":"-0.00014923","RA_OF_ASC_NODE":"129.6079","EPHEMERIS_TYPE":"0","TLE_LINE1":"1 48594U 21041AT  22001.91667824 -.00014923  00000-0 -10074-2 0  9991","TIME_SYSTEM":"UTC","PERIOD":"95.645","BSTAR":"-0.00100740000000","MEAN_MOTION":"15.05571368","INCLINATION":"53.0530","REF_FRAME":"TEME","RCS_SIZE":"LARGE","ELEMENT_SET_NO":"999","ARG_OF_PERICENTER":"108.0262","GP_ID":"192896586","CENTER_NAME":"EARTH","TLE_LINE2":"2 48594  53.0530 129.6079 0001684 108.0262 199.2145 15.05571368  3588","MEAN_ANOMALY":"199.2145","NORAD_CAT_ID":"48594","OBJECT_ID":"2021-041AT","MEAN_MOTION_DDOT":"0.0000000000000","EPOCH":"2022-01-01T22:00:00.999936","CLASSIFICATION_TYPE":"U"},{"COUNTRY_CODE":"US","APOAPSIS":"548.678","OBJECT_TYPE":"PAYLOAD","DECAY_DATE":null,"SEMIMAJOR_AXIS":"6925.309","FILE":"3255244","TLE_LINE1":"1 48595U 21041AU  22001.59791866  .00001232  00000-0  10157-3 0  9990","EPHEMERIS_TYPE":"0","RA_OF_ASC_NODE":"161.4924","MEAN_MOTION_DOT":"0.00001232","PERIAPSIS":"545.671","REV_AT_EPOCH":"3601","OBJECT_NAME":"STARLINK-2252","SITE":"AFETR","MEAN_ELEMENT_THEORY":"SGP4","LAUNCH_DATE":"2021-05-15","ECCENTRICITY":"0.00021710","NORAD_CAT_ID":"48595","MEAN_ANOMALY":"264.6991","TLE_LINE2":"2 48595  53.0554 161.4924 0002171  95.4246 264.6991 15.06412863 36016","CENTER_NAME":"EARTH","GP_ID":"192869917","ARG_OF_PERICENTER":"95.4246","CLASSIFICATION_TYPE":"U","EPOCH":"2022-01-01T14:21:00.172224","MEAN_MOTION_DDOT":"0.0000000000000","OBJECT_ID":"2021-041AU","MEAN_MOTION":"15.06412863","PERIOD":"95.591","BSTAR":"0.00010157000000","TIME_SYSTEM":"UTC","ELEMENT_SET_NO":"999","RCS_SIZE":"LARGE","REF_FRAME":"TEME","INCLINATION":"53.0554"},{"GP_ID":"192870167","CENTER_NAME":"EARTH","ARG_OF_PERICENTER":"80.0834","NORAD_CAT_ID":"48596","TLE_LINE2":"2 48596  53.0548 161.3913 0002506  80.0834 280.0438 15.06403760 35206","MEAN_ANOMALY":"280.0438","MEAN_MOTION_DDOT":"0.0000000000000","EPOCH":"2022-01-01T14:52:51.299616","OBJECT_ID":"2021-041AV","CLASSIFICATION_TYPE":"U","TIME_SYSTEM":"UTC","PERIOD":"95.592","BSTAR":"0.00002018900000","MEAN_MOTION":"15.06403760","REF_FRAME":"TEME","INCLINATION":"53.0548","ELEMENT_SET_NO":"999","RCS_SIZE":"LARGE","SEMIMAJOR_AXIS":"6925.337","FILE":"3255244","OBJECT_TYPE":"PAYLOAD","APOAPSIS":"548.938","COUNTRY_CODE":"US","DECAY_DATE":null,"RA_OF_ASC_NODE":"161.3913","REV_AT_EPOCH":"3520","PERIAPSIS":"545.467","MEAN_MOTION_DOT":"0.00000019","TLE_LINE1":"1 48596U 21041AV  22001.62003819  .00000019  00000-0  20189-4 0  9998","EPHEMERIS_TYPE":"0","SITE":"AFETR","MEAN_ELEMENT_THEORY":"SGP4","OBJECT_NAME":"STARLINK-2253","ECCENTRICITY":"0.00025060","LAUNCH_DATE":"2021-05-15"},{"BSTAR":"0.00001101200000","PERIOD":"95.592","TIME_SYSTEM":"UTC","MEAN_MOTION":"15.06399825","INCLINATION":"53.0558","REF_FRAME":"TEME","RCS_SIZE":"LARGE","ELEMENT_SET_NO":"999","ARG_OF_PERICENTER":"93.9843","CENTER_NAME":"EARTH","GP_ID":"192846917","MEAN_ANOMALY":"266.1413","TLE_LINE2":"2 48597  53.0558 164.9404 0002331  93.9843 266.1413 15.06399825 35890","NORAD_CAT_ID":"48597","OBJECT_ID":"2021-041AW","EPOCH":"2021-12-31T19:56:59.169696","MEAN_MOTION_DDOT":"0.0000000000000","CLASSIFICATION_TYPE":"U","MEAN_ELEMENT_THEORY":"SGP4","SITE":"AFETR","OBJECT_NAME":"STARLINK-2255","ECCENTRICITY":"0.00023310","LAUNCH_DATE":"2021-05-15","FILE":"3255243","SEMIMAJOR_AXIS":"6925.349","DECAY_DATE":null,"APOAPSIS":"548.828","COUNTRY_CODE":"US","OBJECT_TYPE":"PAYLOAD","MEAN_MOTION_DOT":"-0.00000118","REV_AT_EPOCH":"3589","PERIAPSIS":"545.600","RA_OF_ASC_NODE":"164.9404","EPHEMERIS_TYPE":"0","TLE_LINE1":"1 48597U 21041AW  21365.83124039 -.00000118  00000-0  11012-4 0  9998"}];
